STARLINK-38005          
1 69677U 26145A   26194.52499507  .00128734  00000+0  84991-3 0  9994
2 69677  97.2836  41.2779 0001536 100.9749 259.1689 15.75219901  2919
STARLINK-38009          
1 69678U 26145B   26194.52322999  .00133734  00000+0  88199-3 0  9995
2 69678  97.2832  41.2807 0001784 107.3122 252.8338 15.75229466  2917
STARLINK-37998          
1 69679U 26145C   26194.01253023  .00157084  00000+0  10313-2 0  9997
2 69679  97.2845  40.7511 0000490  92.6141 267.5181 15.75268104  2830
STARLINK-37994          
1 69680U 26145D   26194.00002315 -.00048394  00000+0 -32542-3 0  9998
2 69680  97.2844  40.7340 0001347  97.2929 183.9536 15.75189911  4079
STARLINK-37992          
1 69681U 26145E   26193.66668981 -.00233928  00000+0 -16032-2 0  9991
2 69681  97.2847  40.3863 0001451  84.4071 109.8551 15.75296946  4027
STARLINK-37997          
1 69682U 26145F   26194.00002315 -.00065180  00000+0 -43924-3 0  9998
2 69682  97.2846  40.7368 0001296  96.2504 190.9907 15.75201626  4072
STARLINK-37990          
1 69683U 26145G   26194.52146573  .00166860  00000+0  10956-2 0  9994
2 69683  97.2852  41.2829 0001425 107.2500 252.8921 15.75237546  2916
STARLINK-37951          
1 69684U 26145H   26194.01217942  .00159908  00000+0  10508-2 0  9996
2 69684  97.2836  40.7495 0001094  73.1433 286.9952 15.75238869  2832
STARLINK-37957          
1 69685U 26145J   26194.01112101  .00281363  00000+0  18177-2 0  9999
2 69685  97.2852  40.7530 0001067  86.2104 273.9283 15.75291925  2836
STARLINK-37968          
1 69686U 26145K   26194.51334792  .00201795  00000+0  13179-2 0  9995
2 69686  97.2835  41.2940 0001555 101.1523 258.9917 15.75262185  2915
STARLINK-37977          
1 69687U 26145L   26194.51264182  .00199818  00000+0  13053-2 0  9994
2 69687  97.2842  41.2953 0001644 100.9736 259.1714 15.75263487  2914
STARLINK-37908          
1 69688U 26145M   26194.51052450  .00233350  00000+0  15174-2 0  9994
2 69688  97.2848  41.2995 0001524 105.5681 254.5752 15.75275603  2918
STARLINK-37979          
1 69689U 26145N   26194.51017109  .00116998  00000+0  77360-3 0  9991
2 69689  97.2829  41.2989 0001280 110.1191 250.0212 15.75219163  2919
STARLINK-37940          
1 69690U 26145P   26194.50911285  .00183196  00000+0  11993-2 0  9993
2 69690  97.2847  41.3013 0001974 102.5824 257.5662 15.75259248  2917
STARLINK-37961          
1 69691U 26145Q   26194.50593762  .00133919  00000+0  88330-3 0  9998
2 69691  97.2846  41.3038 0001609  95.4340 264.7109 15.75226772  2914
STARLINK-37787          
1 69692U 26145R   26194.50382078  .00195575  00000+0  12794-2 0  9991
2 69692  97.2840  41.3070 0001477  79.4563 280.6868 15.75242701  2916
STARLINK-37962          
1 69693U 26145S   26194.50205574  .00194688  00000+0  12737-2 0  9998
2 69693  97.2847  41.3105 0001297  88.4507 271.6906 15.75241972  2913
STARLINK-37953          
1 69694U 26145T   26194.50487799  .00104316  00000+0  69230-3 0  9990
2 69694  97.2847  41.3060 0001222  79.7964 280.3439 15.75171338  2918
STARLINK-37926          
1 69695U 26145U   26194.50417351  .00137041  00000+0  90401-3 0  9993
2 69695  97.2851  41.3078 0001164  71.3524 288.7867 15.75214968  2912
STARLINK-37959          
1 69696U 26145V   26194.50311625  .00187462  00000+0  12285-2 0  9996
2 69696  97.2846  41.3080 0000716  92.5972 267.5375 15.75223700  2917
STARLINK-37976          
1 69697U 26145W   26194.50029073  .00142536  00000+0  93926-3 0  9995
2 69697  97.2845  41.3117 0001521 103.0925 257.0510 15.75223487  2916
STARLINK-37912          
1 69698U 26145X   26194.49923271  .00122604  00000+0  81035-3 0  9999
2 69698  97.2841  41.3140 0001368  92.4864 267.6557 15.75211924  2912
STARLINK-37974          
1 69699U 26145Y   26194.49852677  .00126002  00000+0  83242-3 0  9999
2 69699  97.2837  41.3152 0001489  86.9048 273.2388 15.75212614  2919
STARLINK-37955          
1 69700U 26145Z   26194.49605662  .00096809  00000+0  64229-3 0  9997
2 69700  97.2841  41.3183 0001747  89.4871 270.6594 15.75200023  2911
STRIX-8                 
1 69701U 26146A   26194.49274703  .00002466  00000+0  18688-3 0  9991
2 69701  41.9902  22.5237 0007432  10.7665 349.3320 15.04425526  2529
STARLINK-38055          
1 69704U 26147A   26194.52339672  .00209438  00000+0  10678-2 0  9994
2 69704  97.2829 230.8118 0000839  87.5502 272.5863 15.80822071  3599
STARLINK-37898          
1 69705U 26147B   26194.52257566  .00206316  00000+0  10501-2 0  9993
2 69705  97.2839 230.8138 0001045  50.0637 310.0722 15.80867541  3590
STARLINK-37970          
1 69706U 26147C   26194.52182595  .00344084  00000+0  17195-2 0  9994
2 69706  97.2830 230.8148 0001205  56.1777 303.9606 15.80913830  3598
