OBJECT_NAME,OBJECT_ID,EPOCH,MEAN_MOTION,ECCENTRICITY,INCLINATION,RA_OF_ASC_NODE,ARG_OF_PERICENTER,MEAN_ANOMALY,EPHEMERIS_TYPE,CLASSIFICATION_TYPE,NORAD_CAT_ID,ELEMENT_SET_NO,REV_AT_EPOCH,BSTAR,MEAN_MOTION_DOT,MEAN_MOTION_DDOT
STARLINK-38005,2026-145A,2026-07-13T12:35:59.574048,15.75219901,.0001536,97.2836,41.2779,100.9749,259.1689,0,U,69677,999,291,.84991E-3,.128734E-2,0
STARLINK-38009,2026-145B,2026-07-13T12:33:27.071136,15.75229466,.0001784,97.2832,41.2807,107.3122,252.8338,0,U,69678,999,291,.88199E-3,.133734E-2,0
STARLINK-37998,2026-145C,2026-07-13T00:18:02.611872,15.75268104,.00004909,97.2845,40.7511,92.6141,267.5181,0,U,69679,999,283,.10312858E-2,.157084E-2,0
STARLINK-37994,2026-145D,2026-07-13T00:00:02.000160,15.75189911,.00013479,97.2844,40.7340,97.2929,183.9536,0,U,69680,999,407,-.32542069E-3,-.48394E-3,0
STARLINK-37992,2026-145E,2026-07-12T16:00:01.999584,15.75296946,.00014511,97.2847,40.3863,84.4071,109.8551,0,U,69681,999,402,-.16032424E-2,-.233928E-2,0
STARLINK-37997,2026-145F,2026-07-13T00:00:02.000160,15.75201626,.00012962,97.2846,40.7368,96.2504,190.9907,0,U,69682,999,407,-.43923684E-3,-.6518E-3,0
STARLINK-37990,2026-145G,2026-07-13T12:30:54.639072,15.75237546,.0001425,97.2852,41.2829,107.2500,252.8921,0,U,69683,999,291,.10956E-2,.16686E-2,0
STARLINK-37951,2026-145H,2026-07-13T00:17:32.301888,15.75238869,.00010945,97.2836,40.7495,73.1433,286.9952,0,U,69684,999,283,.10507965E-2,.159908E-2,0
STARLINK-37957,2026-145J,2026-07-13T00:16:00.855264,15.75291925,.00010673,97.2852,40.7530,86.2104,273.9283,0,U,69685,999,283,.18177378E-2,.281363E-2,0
STARLINK-37968,2026-145K,2026-07-13T12:19:13.260288,15.75262185,.0001555,97.2835,41.2940,101.1523,258.9917,0,U,69686,999,291,.13179E-2,.201795E-2,0
STARLINK-37977,2026-145L,2026-07-13T12:18:12.253248,15.75263487,.0001644,97.2842,41.2953,100.9736,259.1714,0,U,69687,999,291,.13053E-2,.199818E-2,0
STARLINK-37908,2026-145M,2026-07-13T12:15:09.316800,15.75275603,.0001524,97.2848,41.2995,105.5681,254.5752,0,U,69688,999,291,.15174E-2,.23335E-2,0
STARLINK-37979,2026-145N,2026-07-13T12:14:38.782176,15.75219163,.000128,97.2829,41.2989,110.1191,250.0212,0,U,69689,999,291,.7736E-3,.116998E-2,0
STARLINK-37940,2026-145P,2026-07-13T12:13:07.350240,15.75259248,.0001974,97.2847,41.3013,102.5824,257.5662,0,U,69690,999,291,.11993E-2,.183196E-2,0
STARLINK-37961,2026-145Q,2026-07-13T12:08:33.010368,15.75226772,.0001609,97.2846,41.3038,95.4340,264.7109,0,U,69691,999,291,.8833E-3,.133919E-2,0
STARLINK-37787,2026-145R,2026-07-13T12:05:30.115392,15.75242701,.0001477,97.2840,41.3070,79.4563,280.6868,0,U,69692,999,291,.12794E-2,.195575E-2,0
STARLINK-37962,2026-145S,2026-07-13T12:02:57.615936,15.75241972,.0001297,97.2847,41.3105,88.4507,271.6906,0,U,69693,999,291,.12737E-2,.194688E-2,0
STARLINK-37953,2026-145T,2026-07-13T12:07:01.458336,15.75171338,.0001222,97.2847,41.3060,79.7964,280.3439,0,U,69694,999,291,.6923E-3,.104316E-2,0
STARLINK-37926,2026-145U,2026-07-13T12:06:00.591264,15.75214968,.0001164,97.2851,41.3078,71.3524,288.7867,0,U,69695,999,291,.90401E-3,.137041E-2,0
STARLINK-37959,2026-145V,2026-07-13T12:04:29.244000,15.75223700,.0000716,97.2846,41.3080,92.5972,267.5375,0,U,69696,999,291,.12285E-2,.187462E-2,0
STARLINK-37976,2026-145W,2026-07-13T12:00:25.119072,15.75223487,.0001521,97.2845,41.3117,103.0925,257.0510,0,U,69697,999,291,.93926E-3,.142536E-2,0
STARLINK-37912,2026-145X,2026-07-13T11:58:53.706144,15.75211924,.0001368,97.2841,41.3140,92.4864,267.6557,0,U,69698,999,291,.81035E-3,.122604E-2,0
STARLINK-37974,2026-145Y,2026-07-13T11:57:52.712928,15.75212614,.0001489,97.2837,41.3152,86.9048,273.2388,0,U,69699,999,291,.83242E-3,.126002E-2,0
STARLINK-37955,2026-145Z,2026-07-13T11:54:19.291968,15.75200023,.0001747,97.2841,41.3183,89.4871,270.6594,0,U,69700,999,291,.64229E-3,.96809E-3,0
STRIX-8,2026-146A,2026-07-13T11:49:33.343392,15.04425526,.0007432,41.9902,22.5237,10.7665,349.3320,0,U,69701,999,252,.18688E-3,.2466E-4,0
STARLINK-38055,2026-147A,2026-07-13T12:33:41.476608,15.80822071,.0000839,97.2829,230.8118,87.5502,272.5863,0,U,69704,999,359,.10678E-2,.209438E-2,0
STARLINK-37898,2026-147B,2026-07-13T12:32:30.537024,15.80867541,.0001045,97.2839,230.8138,50.0637,310.0722,0,U,69705,999,359,.10501E-2,.206316E-2,0
STARLINK-37970,2026-147C,2026-07-13T12:31:25.762080,15.80913830,.0001205,97.2830,230.8148,56.1777,303.9606,0,U,69706,999,359,.17195E-2,.344084E-2,0
